[{"OBJECT_NAME":"ONEWEB-0174","OBJECT_ID":"2021-025AG","EPOCH":"2026-06-01T12:22:01.665984","MEAN_MOTION":13.13470199,"ECCENTRICITY":0.0001906,"INCLINATION":87.8944,"RA_OF_ASC_NODE":323.3406,"ARG_OF_PERICENTER":96.5072,"MEAN_ANOMALY":263.6275,"EPHEMERIS_TYPE":0,"CLASSIFICATION_TYPE":"U","NORAD_CAT_ID":48072,"ELEMENT_SET_NO":999,"REV_AT_EPOCH":25177,"BSTAR":-0.00035992,"MEAN_MOTION_DOT":-1.19e-06,"MEAN_MOTION_DDOT":0.0},{"OBJECT_NAME":"ONEWEB-0175","OBJECT_ID":"2021-025AH","EPOCH":"2026-06-01T11:16:12.612288","MEAN_MOTION":13.13469291,"ECCENTRICITY":0.0001443,"INCLINATION":87.8953,"RA_OF_ASC_NODE":323.3333,"ARG_OF_PERICENTER":88.5034,"MEAN_ANOMALY":271.6261,"EPHEMERIS_TYPE":0,"CLASSIFICATION_TYPE":"U","NORAD_CAT_ID":48073,"ELEMENT_SET_NO":999,"REV_AT_EPOCH":25142,"BSTAR":0.00081284,"MEAN_MOTION_DOT":3.1e-06,"MEAN_MOTION_DDOT":0.0},{"OBJECT_NAME":"ONEWEB-0177","OBJECT_ID":"2021-025AJ","EPOCH":"2026-06-02T00:21:08.366688","MEAN_MOTION":13.13469417,"ECCENTRICITY":0.0001868,"INCLINATION":87.8949,"RA_OF_ASC_NODE":323.2435,"ARG_OF_PERICENTER":100.2303,"MEAN_ANOMALY":259.9037,"EPHEMERIS_TYPE":0,"CLASSIFICATION_TYPE":"U","NORAD_CAT_ID":48074,"ELEMENT_SET_NO":999,"REV_AT_EPOCH":25168,"BSTAR":0.00022918,"MEAN_MOTION_DOT":9.6e-07,"MEAN_MOTION_DDOT":0.0},{"OBJECT_NAME":"ONEWEB-0178","OBJECT_ID":"2021-025AK","EPOCH":"2026-06-01T10:10:34.248864","MEAN_MOTION":13.13471282,"ECCENTRICITY":0.0001528,"INCLINATION":87.8935,"RA_OF_ASC_NODE":323.3762,"ARG_OF_PERICENTER":97.1638,"MEAN_ANOMALY":262.9665,"EPHEMERIS_TYPE":0,"CLASSIFICATION_TYPE":"U","NORAD_CAT_ID":48075,"ELEMENT_SET_NO":999,"REV_AT_EPOCH":25165,"BSTAR":-0.00076146,"MEAN_MOTION_DOT":-2.65e-06,"MEAN_MOTION_DDOT":0.0},{"OBJECT_NAME":"ONEWEB-0108","OBJECT_ID":"2021-025AL","EPOCH":"2026-06-01T12:51:16.301376","MEAN_MOTION":13.1346978,"ECCENTRICITY":0.0001992,"INCLINATION":87.8952,"RA_OF_ASC_NODE":323.3299,"ARG_OF_PERICENTER":89.7174,"MEAN_ANOMALY":270.4184,"EPHEMERIS_TYPE":0,"CLASSIFICATION_TYPE":"U","NORAD_CAT_ID":48076,"ELEMENT_SET_NO":999,"REV_AT_EPOCH":25159,"BSTAR":0.0009114100000000001,"MEAN_MOTION_DOT":3.46e-06,"MEAN_MOTION_DDOT":0.0},{"OBJECT_NAME":"ONEWEB-0169","OBJECT_ID":"2021-025AM","EPOCH":"2026-06-02T00:35:45.273984","MEAN_MOTION":13.13468836,"ECCENTRICITY":0.0001871,"INCLINATION":87.8943,"RA_OF_ASC_NODE":323.2415,"ARG_OF_PERICENTER":94.4475,"MEAN_ANOMALY":265.6868,"EPHEMERIS_TYPE":0,"CLASSIFICATION_TYPE":"U","NORAD_CAT_ID":48077,"ELEMENT_SET_NO":999,"REV_AT_EPOCH":25031,"BSTAR":-0.00021845,"MEAN_MOTION_DOT":-6.7e-07,"MEAN_MOTION_DDOT":0.0},{"OBJECT_NAME":"ONEWEB-0176","OBJECT_ID":"2021-031A","EPOCH":"2026-06-01T08:18:56.838816","MEAN_MOTION":13.14502312,"ECCENTRICITY":0.0001752,"INCLINATION":87.895,"RA_OF_ASC_NODE":292.8576,"ARG_OF_PERICENTER":100.2909,"MEAN_ANOMALY":259.8418,"EPHEMERIS_TYPE":0,"CLASSIFICATION_TYPE":"U","NORAD_CAT_ID":48210,"ELEMENT_SET_NO":999,"REV_AT_EPOCH":24623,"BSTAR":-0.00051305,"MEAN_MOTION_DOT":-1.77e-06,"MEAN_MOTION_DDOT":0.0},{"OBJECT_NAME":"ONEWEB-0184","OBJECT_ID":"2021-031B","EPOCH":"2026-06-01T09:29:43.599264","MEAN_MOTION":13.14501894,"ECCENTRICITY":9.87e-05,"INCLINATION":87.8961,"RA_OF_ASC_NODE":292.8477,"ARG_OF_PERICENTER":102.8273,"MEAN_ANOMALY":257.2967,"EPHEMERIS_TYPE":0,"CLASSIFICATION_TYPE":"U","NORAD_CAT_ID":48211,"ELEMENT_SET_NO":999,"REV_AT_EPOCH":24621,"BSTAR":2.0606e-05,"MEAN_MOTION_DOT":2e-07,"MEAN_MOTION_DDOT":0.0},{"OBJECT_NAME":"ONEWEB-0179","OBJECT_ID":"2021-031C","EPOCH":"2026-06-01T10:35:58.263648","MEAN_MOTION":14.2551227,"ECCENTRICITY":0.021908,"INCLINATION":87.8976,"RA_OF_ASC_NODE":290.7637,"ARG_OF_PERICENTER":309.0777,"MEAN_ANOMALY":49.1103,"EPHEMERIS_TYPE":0,"CLASSIFICATION_TYPE":"U","NORAD_CAT_ID":48212,"ELEMENT_SET_NO":999,"REV_AT_EPOCH":24680,"BSTAR":4.6507e-05,"MEAN_MOTION_DOT":1.58e-06,"MEAN_MOTION_DDOT":0.0},{"OBJECT_NAME":"ONEWEB-0180","OBJECT_ID":"2021-031D","EPOCH":"2026-06-01T09:34:17.979744","MEAN_MOTION":13.14502417,"ECCENTRICITY":0.0001832,"INCLINATION":87.8956,"RA_OF_ASC_NODE":292.8431,"ARG_OF_PERICENTER":115.0993,"MEAN_ANOMALY":245.0327,"EPHEMERIS_TYPE":0,"CLASSIFICATION_TYPE":"U","NORAD_CAT_ID":48213,"ELEMENT_SET_NO":999,"REV_AT_EPOCH":24614,"BSTAR":4.6905000000000006e-05,"MEAN_MOTION_DOT":3e-07,"MEAN_MOTION_DDOT":0.0},{"OBJECT_NAME":"ONEWEB-0218","OBJECT_ID":"2021-031E","EPOCH":"2026-05-31T21:18:59.542560","MEAN_MOTION":13.14501052,"ECCENTRICITY":0.0001138,"INCLINATION":87.8955,"RA_OF_ASC_NODE":292.944,"ARG_OF_PERICENTER":120.2873,"MEAN_ANOMALY":239.8369,"EPHEMERIS_TYPE":0,"CLASSIFICATION_TYPE":"U","NORAD_CAT_ID":48214,"ELEMENT_SET_NO":999,"REV_AT_EPOCH":24623,"BSTAR":-0.00064249,"MEAN_MOTION_DOT":-2.25e-06,"MEAN_MOTION_DDOT":0.0},{"OBJECT_NAME":"ONEWEB-0209","OBJECT_ID":"2021-031F","EPOCH":"2026-06-01T08:00:40.323456","MEAN_MOTION":13.14504804,"ECCENTRICITY":0.0001921,"INCLINATION":87.895,"RA_OF_ASC_NODE":292.8737,"ARG_OF_PERICENTER":105.4412,"MEAN_ANOMALY":254.693,"EPHEMERIS_TYPE":0,"CLASSIFICATION_TYPE":"U","NORAD_CAT_ID":48215,"ELEMENT_SET_NO":999,"REV_AT_EPOCH":24629,"BSTAR":-0.00038698,"MEAN_MOTION_DOT":-1.31e-06,"MEAN_MOTION_DDOT":0.0},{"OBJECT_NAME":"ONEWEB-0198","OBJECT_ID":"2021-031G","EPOCH":"2026-05-31T22:29:59.369280","MEAN_MOTION":13.14500842,"ECCENTRICITY":0.0001661,"INCLINATION":87.8943,"RA_OF_ASC_NODE":292.9531,"ARG_OF_PERICENTER":112.2206,"MEAN_ANOMALY":247.91,"EPHEMERIS_TYPE":0,"CLASSIFICATION_TYPE":"U","NORAD_CAT_ID":48216,"ELEMENT_SET_NO":999,"REV_AT_EPOCH":24635,"BSTAR":-0.00011596,"MEAN_MOTION_DOT":-3e-07,"MEAN_MOTION_DDOT":0.0},{"OBJECT_NAME":"ONEWEB-0189","OBJECT_ID":"2021-031H","EPOCH":"2026-06-01T07:56:06.594432","MEAN_MOTION":13.14502388,"ECCENTRICITY":0.0001659,"INCLINATION":87.8953,"RA_OF_ASC_NODE":292.8589,"ARG_OF_PERICENTER":107.5818,"MEAN_ANOMALY":252.5493,"EPHEMERIS_TYPE":0,"CLASSIFICATION_TYPE":"U","NORAD_CAT_ID":48217,"ELEMENT_SET_NO":999,"REV_AT_EPOCH":24614,"BSTAR":-0.00032638000000000003,"MEAN_MOTION_DOT":-1.08e-06,"MEAN_MOTION_DDOT":0.0},{"OBJECT_NAME":"ONEWEB-0196","OBJECT_ID":"2021-031J","EPOCH":"2026-06-01T11:03:21.819744","MEAN_MOTION":13.14501635,"ECCENTRICITY":0.0001762,"INCLINATION":87.8952,"RA_OF_ASC_NODE":292.8423,"ARG_OF_PERICENTER":102.2408,"MEAN_ANOMALY":257.8919,"EPHEMERIS_TYPE":0,"CLASSIFICATION_TYPE":"U","NORAD_CAT_ID":48218,"ELEMENT_SET_NO":999,"REV_AT_EPOCH":24616,"BSTAR":0.00028716,"MEAN_MOTION_DOT":1.19e-06,"MEAN_MOTION_DDOT":0.0},{"OBJECT_NAME":"ONEWEB-0183","OBJECT_ID":"2021-031K","EPOCH":"2026-06-01T10:26:49.689312","MEAN_MOTION":13.14502267,"ECCENTRICITY":0.0002053,"INCLINATION":87.8948,"RA_OF_ASC_NODE":292.8455,"ARG_OF_PERICENTER":98.7467,"MEAN_ANOMALY":261.3895,"EPHEMERIS_TYPE":0,"CLASSIFICATION_TYPE":"U","NORAD_CAT_ID":48219,"ELEMENT_SET_NO":999,"REV_AT_EPOCH":24625,"BSTAR":-0.00011382,"MEAN_MOTION_DOT":-2.9e-07,"MEAN_MOTION_DDOT":0.0},{"OBJECT_NAME":"ONEWEB-0185","OBJECT_ID":"2021-031L","EPOCH":"2026-06-01T11:04:29.270496","MEAN_MOTION":13.14501576,"ECCENTRICITY":0.0002114,"INCLINATION":87.8959,"RA_OF_ASC_NODE":292.8327,"ARG_OF_PERICENTER":105.6407,"MEAN_ANOMALY":254.4956,"EPHEMERIS_TYPE":0,"CLASSIFICATION_TYPE":"U","NORAD_CAT_ID":48220,"ELEMENT_SET_NO":999,"REV_AT_EPOCH":24618,"BSTAR":0.00044989000000000004,"MEAN_MOTION_DOT":1.8e-06,"MEAN_MOTION_DDOT":0.0},{"OBJECT_NAME":"ONEWEB-0187","OBJECT_ID":"2021-031M","EPOCH":"2026-06-02T04:51:51.385248","MEAN_MOTION":13.14501771,"ECCENTRICITY":0.0001945,"INCLINATION":87.8944,"RA_OF_ASC_NODE":292.7023,"ARG_OF_PERICENTER":106.3979,"MEAN_ANOMALY":253.7365,"EPHEMERIS_TYPE":0,"CLASSIFICATION_TYPE":"U","NORAD_CAT_ID":48221,"ELEMENT_SET_NO":999,"REV_AT_EPOCH":24629,"BSTAR":4.5689e-05,"MEAN_MOTION_DOT":3e-07,"MEAN_MOTION_DDOT":0.0},{"OBJECT_NAME":"ONEWEB-0192","OBJECT_ID":"2021-031N","EPOCH":"2026-06-01T08:02:57.061824","MEAN_MOTION":13.14504226,"ECCENTRICITY":0.0001743,"INCLINATION":87.8946,"RA_OF_ASC_NODE":292.8653,"ARG_OF_PERICENTER":100.2924,"MEAN_ANOMALY":259.8402,"EPHEMERIS_TYPE":0,"CLASSIFICATION_TYPE":"U","NORAD_CAT_ID":48222,"ELEMENT_SET_NO":999,"REV_AT_EPOCH":24609,"BSTAR":-0.00046833000000000004,"MEAN_MOTION_DOT":-1.61e-06,"MEAN_MOTION_DDOT":0.0},{"OBJECT_NAME":"ONEWEB-0219","OBJECT_ID":"2021-031P","EPOCH":"2026-06-01T11:12:29.193120","MEAN_MOTION":13.14504023,"ECCENTRICITY":0.0001975,"INCLINATION":87.8949,"RA_OF_ASC_NODE":292.8311,"ARG_OF_PERICENTER":106.9849,"MEAN_ANOMALY":253.1497,"EPHEMERIS_TYPE":0,"CLASSIFICATION_TYPE":"U","NORAD_CAT_ID":48223,"ELEMENT_SET_NO":999,"REV_AT_EPOCH":24631,"BSTAR":0.00038878000000000003,"MEAN_MOTION_DOT":1.57e-06,"MEAN_MOTION_DDOT":0.0},{"OBJECT_NAME":"ONEWEB-0202","OBJECT_ID":"2021-031Q","EPOCH":"2026-06-01T08:55:29.224992","MEAN_MOTION":13.14502143,"ECCENTRICITY":0.0001295,"INCLINATION":87.8952,"RA_OF_ASC_NODE":292.8616,"ARG_OF_PERICENTER":114.579,"MEAN_ANOMALY":245.5475,"EPHEMERIS_TYPE":0,"CLASSIFICATION_TYPE":"U","NORAD_CAT_ID":48224,"ELEMENT_SET_NO":999,"REV_AT_EPOCH":24628,"BSTAR":0.00055672,"MEAN_MOTION_DOT":2.19e-06,"MEAN_MOTION_DDOT":0.0},{"OBJECT_NAME":"ONEWEB-0204","OBJECT_ID":"2021-031R","EPOCH":"2026-05-31T22:46:55.168896","MEAN_MOTION":13.1450125,"ECCENTRICITY":0.0002164,"INCLINATION":87.8952,"RA_OF_ASC_NODE":292.9407,"ARG_OF_PERICENTER":98.3228,"MEAN_ANOMALY":261.8147,"EPHEMERIS_TYPE":0,"CLASSIFICATION_TYPE":"U","NORAD_CAT_ID":48225,"ELEMENT_SET_NO":999,"REV_AT_EPOCH":24612,"BSTAR":-0.00063567,"MEAN_MOTION_DOT":-2.23e-06,"MEAN_MOTION_DDOT":0.0},{"OBJECT_NAME":"ONEWEB-0205","OBJECT_ID":"2021-031S","EPOCH":"2026-06-01T10:58:47.923968","MEAN_MOTION":13.14503926,"ECCENTRICITY":0.0001802,"INCLINATION":87.8957,"RA_OF_ASC_NODE":292.8316,"ARG_OF_PERICENTER":106.2936,"MEAN_ANOMALY":253.8392,"EPHEMERIS_TYPE":0,"CLASSIFICATION_TYPE":"U","NORAD_CAT_ID":48226,"ELEMENT_SET_NO":999,"REV_AT_EPOCH":24620,"BSTAR":0.00036354,"MEAN_MOTION_DOT":1.48e-06,"MEAN_MOTION_DDOT":0.0}]